LEMUR-2-FURIAUS         
1 42840U 17042R   26062.73233699  .00031530  00000+0  12285-2 0  9991
2 42840  97.3735 242.3531 0007579  78.1327 282.0761 15.25882702472100
CORVUS BC2              
1 42846U 17042X   26062.41357314  .00005940  00000+0  41580-3 0  9990
2 42846  97.3922 227.9967 0014250 113.1483 247.1247 15.05529663471149
CORVUS BC1              
1 42847U 17042Y   26062.42099231  .00004552  00000+0  31790-3 0  9993
2 42847  97.3952 228.7452 0013284  91.1130 269.1620 15.05746487471178
VRSS-2                  
1 42954U 17060A   26062.86329338  .00000958  00000+0  12984-3 0  9994
2 42954  97.6665 105.2725 0018593  84.8985 275.4350 14.81000255452862
MOHAMMED VI-A           
1 43005U 17070A   26062.87205227  .00000403  00000+0  64197-4 0  9993
2 43005  97.9450 136.7032 0001368  96.7920 263.3446 14.77110378448431
FENGYUN 3D              
1 43010U 17072A   26062.85711653 -.00000258  00000+0 -10025-3 0  9994
2 43010  99.0014  35.4371 0001850  25.4227 334.7039 14.19711597430047
CZ-4C R/B               
1 43012U 17072C   26062.75121164  .00000821  00000+0  16906-3 0  9995
2 43012  98.5702 167.3647 0123663 116.5125 244.8816 14.58684241441262
NOAA 20 (JPSS-1)        
1 43013U 17073A   26062.83715056  .00000099  00000+0  68042-4 0  9991
2 43013  98.7686   3.2827 0000931 145.4930 214.6307 14.19534278429527
MAKERSAT 0              
1 43016U 17073D   26062.61045766  .00030771  00000+0  93724-3 0  9998
2 43016  97.4798 304.5701 0116176 287.7327  71.1259 15.27450576450329
RADFXSAT (FOX-1B)       
1 43017U 17073E   26062.76684852  .00014063  00000+0  63746-3 0  9997
2 43017  97.4872 292.1886 0155380 332.6956  26.6167 15.10717592449469
JILIN-1 04              
1 43022U 17074A   26062.83027321  .00019462  00000+0  49730-3 0  9999
2 43022  97.4773 169.9284 0004069 198.7725 161.3371 15.39497267458043
JILIN-1 05              
1 43023U 17074B   26062.77610760  .00009099  00000+0  29379-3 0  9990
2 43023  97.4791 167.6926 0004179 232.7769 127.3092 15.32343564457854
JILIN-1 06              
1 43024U 17074C   26062.81108899  .00008965  00000+0  28959-3 0  9995
2 43024  97.4726 164.8396 0005825 249.1653 110.8965 15.32329058457696
IRIDIUM 116             
1 43072U 17083C   26062.37614774  .00000024  00000+0  16193-5 0  9990
2 43072  86.4017   6.2169 0001971  92.8085 267.3336 14.34217714429007
IRIDIUM 130             
1 43073U 17083D   26062.83281342  .00000146  00000+0  44973-4 0  9994
2 43073  86.4022   6.2908 0001893  87.7540 272.3872 14.34218327429010
LKW-2                   
1 43080U 17084A   26062.88844529  .00006527  00000+0  26570-3 0  9991
2 43080  97.1343 107.6362 0000593 190.1085 170.0142 15.24818173455638
SUPERVIEW-1 03          
1 43099U 18002A   26062.86720333  .00027400  00000+0  75888-3 0  9995
2 43099  97.3179 148.1242 0050803 198.6554 161.2830 15.35616543452189
