[{"OBJECT_NAME":"LEMUR-2-FURIAUS","OBJECT_ID":"2017-042R","EPOCH":"2026-03-03T17:34:33.915936","MEAN_MOTION":15.25882702,"ECCENTRICITY":0.0007579,"INCLINATION":97.3735,"RA_OF_ASC_NODE":242.3531,"ARG_OF_PERICENTER":78.1327,"MEAN_ANOMALY":282.0761,"EPHEMERIS_TYPE":0,"CLASSIFICATION_TYPE":"U","NORAD_CAT_ID":42840,"ELEMENT_SET_NO":999,"REV_AT_EPOCH":47210,"BSTAR":0.0012285,"MEAN_MOTION_DOT":0.0003153,"MEAN_MOTION_DDOT":0},{"OBJECT_NAME":"CORVUS BC2","OBJECT_ID":"2017-042X","EPOCH":"2026-03-03T09:55:32.719296","MEAN_MOTION":15.05529663,"ECCENTRICITY":0.00142507,"INCLINATION":97.3922,"RA_OF_ASC_NODE":227.9967,"ARG_OF_PERICENTER":113.1483,"MEAN_ANOMALY":247.1247,"EPHEMERIS_TYPE":0,"CLASSIFICATION_TYPE":"U","NORAD_CAT_ID":42846,"ELEMENT_SET_NO":999,"REV_AT_EPOCH":47114,"BSTAR":0.00041579578,"MEAN_MOTION_DOT":5.94e-5,"MEAN_MOTION_DDOT":0},{"OBJECT_NAME":"CORVUS BC1","OBJECT_ID":"2017-042Y","EPOCH":"2026-03-03T10:06:13.735584","MEAN_MOTION":15.05746487,"ECCENTRICITY":0.00132848,"INCLINATION":97.3952,"RA_OF_ASC_NODE":228.7452,"ARG_OF_PERICENTER":91.113,"MEAN_ANOMALY":269.162,"EPHEMERIS_TYPE":0,"CLASSIFICATION_TYPE":"U","NORAD_CAT_ID":42847,"ELEMENT_SET_NO":999,"REV_AT_EPOCH":47117,"BSTAR":0.00031789523,"MEAN_MOTION_DOT":4.552e-5,"MEAN_MOTION_DDOT":0},{"OBJECT_NAME":"VRSS-2","OBJECT_ID":"2017-060A","EPOCH":"2026-03-03T20:43:08.548032","MEAN_MOTION":14.81000255,"ECCENTRICITY":0.0018593,"INCLINATION":97.6665,"RA_OF_ASC_NODE":105.2725,"ARG_OF_PERICENTER":84.8985,"MEAN_ANOMALY":275.435,"EPHEMERIS_TYPE":0,"CLASSIFICATION_TYPE":"U","NORAD_CAT_ID":42954,"ELEMENT_SET_NO":999,"REV_AT_EPOCH":45286,"BSTAR":0.00012984,"MEAN_MOTION_DOT":9.58e-6,"MEAN_MOTION_DDOT":0},{"OBJECT_NAME":"MOHAMMED VI-A","OBJECT_ID":"2017-070A","EPOCH":"2026-03-03T20:55:45.316128","MEAN_MOTION":14.77110378,"ECCENTRICITY":0.0001368,"INCLINATION":97.945,"RA_OF_ASC_NODE":136.7032,"ARG_OF_PERICENTER":96.792,"MEAN_ANOMALY":263.3446,"EPHEMERIS_TYPE":0,"CLASSIFICATION_TYPE":"U","NORAD_CAT_ID":43005,"ELEMENT_SET_NO":999,"REV_AT_EPOCH":44843,"BSTAR":6.4197e-5,"MEAN_MOTION_DOT":4.03e-6,"MEAN_MOTION_DDOT":0},{"OBJECT_NAME":"FENGYUN 3D","OBJECT_ID":"2017-072A","EPOCH":"2026-03-03T20:34:14.868192","MEAN_MOTION":14.19711597,"ECCENTRICITY":0.000185,"INCLINATION":99.0014,"RA_OF_ASC_NODE":35.4371,"ARG_OF_PERICENTER":25.4227,"MEAN_ANOMALY":334.7039,"EPHEMERIS_TYPE":0,"CLASSIFICATION_TYPE":"U","NORAD_CAT_ID":43010,"ELEMENT_SET_NO":999,"REV_AT_EPOCH":43004,"BSTAR":-0.00010025,"MEAN_MOTION_DOT":-2.58e-6,"MEAN_MOTION_DDOT":0},{"OBJECT_NAME":"CZ-4C R/B","OBJECT_ID":"2017-072C","EPOCH":"2026-03-03T18:01:44.685696","MEAN_MOTION":14.58684241,"ECCENTRICITY":0.0123663,"INCLINATION":98.5702,"RA_OF_ASC_NODE":167.3647,"ARG_OF_PERICENTER":116.5125,"MEAN_ANOMALY":244.8816,"EPHEMERIS_TYPE":0,"CLASSIFICATION_TYPE":"U","NORAD_CAT_ID":43012,"ELEMENT_SET_NO":999,"REV_AT_EPOCH":44126,"BSTAR":0.00016906,"MEAN_MOTION_DOT":8.21e-6,"MEAN_MOTION_DDOT":0},{"OBJECT_NAME":"NOAA 20 (JPSS-1)","OBJECT_ID":"2017-073A","EPOCH":"2026-03-03T20:05:29.808384","MEAN_MOTION":14.19534278,"ECCENTRICITY":9.31e-5,"INCLINATION":98.7686,"RA_OF_ASC_NODE":3.2827,"ARG_OF_PERICENTER":145.493,"MEAN_ANOMALY":214.6307,"EPHEMERIS_TYPE":0,"CLASSIFICATION_TYPE":"U","NORAD_CAT_ID":43013,"ELEMENT_SET_NO":999,"REV_AT_EPOCH":42952,"BSTAR":6.8042e-5,"MEAN_MOTION_DOT":9.9e-7,"MEAN_MOTION_DDOT":0},{"OBJECT_NAME":"MAKERSAT 0","OBJECT_ID":"2017-073D","EPOCH":"2026-03-03T14:39:03.541824","MEAN_MOTION":15.27450576,"ECCENTRICITY":0.0116176,"INCLINATION":97.4798,"RA_OF_ASC_NODE":304.5701,"ARG_OF_PERICENTER":287.7327,"MEAN_ANOMALY":71.1259,"EPHEMERIS_TYPE":0,"CLASSIFICATION_TYPE":"U","NORAD_CAT_ID":43016,"ELEMENT_SET_NO":999,"REV_AT_EPOCH":45032,"BSTAR":0.00093724,"MEAN_MOTION_DOT":0.00030771,"MEAN_MOTION_DDOT":0},{"OBJECT_NAME":"RADFXSAT (FOX-1B)","OBJECT_ID":"2017-073E","EPOCH":"2026-03-03T18:24:15.712128","MEAN_MOTION":15.10717592,"ECCENTRICITY":0.015538,"INCLINATION":97.4872,"RA_OF_ASC_NODE":292.1886,"ARG_OF_PERICENTER":332.6956,"MEAN_ANOMALY":26.6167,"EPHEMERIS_TYPE":0,"CLASSIFICATION_TYPE":"U","NORAD_CAT_ID":43017,"ELEMENT_SET_NO":999,"REV_AT_EPOCH":44946,"BSTAR":0.00063746,"MEAN_MOTION_DOT":0.00014063,"MEAN_MOTION_DDOT":0},{"OBJECT_NAME":"JILIN-1 04","OBJECT_ID":"2017-074A","EPOCH":"2026-03-03T19:55:35.605344","MEAN_MOTION":15.39497267,"ECCENTRICITY":0.0004069,"INCLINATION":97.4773,"RA_OF_ASC_NODE":169.9284,"ARG_OF_PERICENTER":198.7725,"MEAN_ANOMALY":161.3371,"EPHEMERIS_TYPE":0,"CLASSIFICATION_TYPE":"U","NORAD_CAT_ID":43022,"ELEMENT_SET_NO":999,"REV_AT_EPOCH":45804,"BSTAR":0.0004973,"MEAN_MOTION_DOT":0.00019462,"MEAN_MOTION_DDOT":0},{"OBJECT_NAME":"JILIN-1 05","OBJECT_ID":"2017-074B","EPOCH":"2026-03-03T18:37:35.696640","MEAN_MOTION":15.32343564,"ECCENTRICITY":0.0004179,"INCLINATION":97.4791,"RA_OF_ASC_NODE":167.6926,"ARG_OF_PERICENTER":232.7769,"MEAN_ANOMALY":127.3092,"EPHEMERIS_TYPE":0,"CLASSIFICATION_TYPE":"U","NORAD_CAT_ID":43023,"ELEMENT_SET_NO":999,"REV_AT_EPOCH":45785,"BSTAR":0.00029379,"MEAN_MOTION_DOT":9.099e-5,"MEAN_MOTION_DDOT":0},{"OBJECT_NAME":"JILIN-1 06","OBJECT_ID":"2017-074C","EPOCH":"2026-03-03T19:27:58.088736","MEAN_MOTION":15.32329058,"ECCENTRICITY":0.0005825,"INCLINATION":97.4726,"RA_OF_ASC_NODE":164.8396,"ARG_OF_PERICENTER":249.1653,"MEAN_ANOMALY":110.8965,"EPHEMERIS_TYPE":0,"CLASSIFICATION_TYPE":"U","NORAD_CAT_ID":43024,"ELEMENT_SET_NO":999,"REV_AT_EPOCH":45769,"BSTAR":0.00028959,"MEAN_MOTION_DOT":8.965e-5,"MEAN_MOTION_DDOT":0},{"OBJECT_NAME":"IRIDIUM 116","OBJECT_ID":"2017-083C","EPOCH":"2026-03-03T09:01:39.164736","MEAN_MOTION":14.34217714,"ECCENTRICITY":0.00019715,"INCLINATION":86.4017,"RA_OF_ASC_NODE":6.2169,"ARG_OF_PERICENTER":92.8085,"MEAN_ANOMALY":267.3336,"EPHEMERIS_TYPE":0,"CLASSIFICATION_TYPE":"U","NORAD_CAT_ID":43072,"ELEMENT_SET_NO":999,"REV_AT_EPOCH":42900,"BSTAR":1.619329e-6,"MEAN_MOTION_DOT":2.4e-7,"MEAN_MOTION_DDOT":0},{"OBJECT_NAME":"IRIDIUM 130","OBJECT_ID":"2017-083D","EPOCH":"2026-03-03T19:59:15.079488","MEAN_MOTION":14.34218327,"ECCENTRICITY":0.0001893,"INCLINATION":86.4022,"RA_OF_ASC_NODE":6.2908,"ARG_OF_PERICENTER":87.754,"MEAN_ANOMALY":272.3872,"EPHEMERIS_TYPE":0,"CLASSIFICATION_TYPE":"U","NORAD_CAT_ID":43073,"ELEMENT_SET_NO":999,"REV_AT_EPOCH":42901,"BSTAR":4.4973e-5,"MEAN_MOTION_DOT":1.46e-6,"MEAN_MOTION_DDOT":0},{"OBJECT_NAME":"LKW-2","OBJECT_ID":"2017-084A","EPOCH":"2026-03-03T21:19:21.673056","MEAN_MOTION":15.24818173,"ECCENTRICITY":5.93e-5,"INCLINATION":97.1343,"RA_OF_ASC_NODE":107.6362,"ARG_OF_PERICENTER":190.1085,"MEAN_ANOMALY":170.0142,"EPHEMERIS_TYPE":0,"CLASSIFICATION_TYPE":"U","NORAD_CAT_ID":43080,"ELEMENT_SET_NO":999,"REV_AT_EPOCH":45563,"BSTAR":0.0002657,"MEAN_MOTION_DOT":6.527e-5,"MEAN_MOTION_DDOT":0},{"OBJECT_NAME":"SUPERVIEW-1 03","OBJECT_ID":"2018-002A","EPOCH":"2026-03-03T20:48:46.367712","MEAN_MOTION":15.35616543,"ECCENTRICITY":0.0050803,"INCLINATION":97.3179,"RA_OF_ASC_NODE":148.1242,"ARG_OF_PERICENTER":198.6554,"MEAN_ANOMALY":161.283,"EPHEMERIS_TYPE":0,"CLASSIFICATION_TYPE":"U","NORAD_CAT_ID":43099,"ELEMENT_SET_NO":999,"REV_AT_EPOCH":45218,"BSTAR":0.00075888,"MEAN_MOTION_DOT":0.000274,"MEAN_MOTION_DDOT":0}]
